     2.100          NAVIGATION                              RINEX VERSION / TYPE
fic2rin                                 04/17/2016 00:16:53 PGM / RUN BY / DATE
                                                            END OF HEADER
25 16  4 16 22  0  0.0 -.154342502356D-03 -.704858393874D-11  .000000000000D+00
     .480000000000D+02  .296875000000D+02  .411445709794D-08 -.223259656763D+01
     .151619315147D-05  .552119035274D-02  .945478677750D-05  .515377018929D+04
     .597600000000D+06  .838190317154D-07  .277390139720D+01 -.391155481339D-07
     .978771376934D+00  .207093750000D+03  .744347399114D+00 -.777175229611D-08
     .155720772109D-09  .100000000000D+01  .189200000000D+04  .000000000000D+00
     .240000000000D+01  .000000000000D+00  .558793544769D-08  .480000000000D+02
     .590406000000D+06  .400000000000D+01
26 16  4 16 22  0  0.0 -.332805328071D-03 -.135287336889D-10  .000000000000D+00
     .115000000000D+03  .405625000000D+02  .447340062081D-08 -.298563037345D+01
     .209175050259D-05  .100515910890D-02  .100322067738D-04  .515374732399D+04
     .597600000000D+06  .558793544769D-08  .276564288378D+01  .130385160446D-07
     .960750451296D+00  .187750000000D+03  .998825356400D-01 -.797997525514D-08
     .108575951196D-09  .100000000000D+01  .189200000000D+04  .000000000000D+00
     .340000000000D+01  .000000000000D+00  .698491930962D-08  .115000000000D+03
     .590406000000D+06  .400000000000D+01
27 16  4 16 22  0  0.0  .829147174954D-04  .386535248253D-11  .000000000000D+00
     .420000000000D+02  .218750000000D+02  .468412368398D-08  .167046801059D+01
     .133924186230D-05  .353915384039D-02  .464543700218D-05  .515363602257D+04
     .597600000000D+06 -.372529029846D-08 -.246821989835D+01  .106170773506D-06
     .970957631574D+00  .295687500000D+03  .237107326529D+00 -.833320425426D-08
     .105718689322D-09  .100000000000D+01  .189200000000D+04  .000000000000D+00
     .240000000000D+01  .000000000000D+00  .139698386192D-08  .420000000000D+02
     .590406000000D+06  .400000000000D+01
28 16  4 16 22  0  0.0  .516647007316D-03  .261479726760D-11  .000000000000D+00
     .139000000000D+03  .255000000000D+02  .377051419991D-08  .240799184483D+01
     .128895044327D-05  .197636539815D-01  .976212322712D-05  .515362806320D+04
     .597600000000D+06  .204890966415D-06  .284806418576D+01 -.188127160072D-06
     .989760173861D+00  .200625000000D+03 -.161803933511D+01 -.732923386344D-08
     .257153568621D-10  .100000000000D+01  .189200000000D+04  .000000000000D+00
     .340000000000D+01  .000000000000D+00 -.111758708954D-07  .139000000000D+03
     .590406000000D+06  .400000000000D+01
29 16  4 16 22  0  0.0  .656925607473D-03  .227373675443D-12  .000000000000D+00
     .600000000000D+02  .843750000000D+01  .442447001122D-08 -.221477657086D+01
     .333413481712D-06  .105486914981D-02  .448338687420D-05  .515358403397D+04
     .597600000000D+06 -.651925802231D-07 -.240888345244D+01 -.540167093277D-07
     .976934058619D+00  .297500000000D+03 -.384685738722D+00 -.815748264904D-08
     .460733477113D-10  .100000000000D+01  .189200000000D+04  .000000000000D+00
     .240000000000D+01  .000000000000D+00 -.102445483208D-07  .600000000000D+02
     .590406000000D+06  .400000000000D+01
31 16  4 16 22  0  0.0  .273412559181D-03 -.181898940355D-11  .000000000000D+00
     .870000000000D+02 -.259687500000D+02  .447840082908D-08 -.129412540924D+01
    -.169500708580D-05  .820355210453D-02  .779144465923D-05  .515372991180D+04
     .597600000000D+06  .279396772385D-07  .175817598983D+01 -.137835741043D-06
     .971354259387D+00  .235468750000D+03 -.401646644161D+00 -.813926760459D-08
    -.205365697163D-09  .100000000000D+01  .189200000000D+04  .000000000000D+00
     .240000000000D+01  .000000000000D+00 -.135041773319D-07  .870000000000D+02
     .590406000000D+06  .400000000000D+01
32 16  4 16 22  0  0.0  .492855906487D-05 -.329691829393D-11  .000000000000D+00
     .360000000000D+02  .413437500000D+02  .474234039466D-08  .196490479694D+01
     .233389437199D-05  .195151893422D-03  .552460551262D-05  .515358614731D+04
     .597600000000D+06 -.223517417908D-07  .671845714534D+00 -.260770320892D-07
     .960119374769D+00  .268187500000D+03 -.236035199365D+01 -.826391565383D-08
     .277511559470D-09  .100000000000D+01  .189200000000D+04  .000000000000D+00
     .240000000000D+01  .000000000000D+00  .465661287308D-09  .360000000000D+02
     .590406000000D+06  .400000000000D+01
24 16  4 16 21 59 44.0 -.156159512699D-04 -.682121026330D-12  .000000000000D+00
     .350000000000D+02 -.273750000000D+02  .496699260946D-08 -.275791520921D+00
    -.135600566864D-05  .439963419922D-02  .664405524731D-05  .515362504959D+04
     .597584000000D+06  .372529029846D-07  .170250257376D+01  .540167093277D-07
     .949621853528D+00  .247500000000D+03  .413920073341D+00 -.837427739370D-08
    -.253939149013D-09  .100000000000D+01  .189200000000D+04  .000000000000D+00
     .240000000000D+01  .000000000000D+00  .232830643654D-08  .350000000000D+02
     .590616000000D+06  .400000000000D+01
22 16  4 16 21 59 44.0  .361267477274D-03 -.738964445191D-11  .000000000000D+00
     .100000000000D+01  .593750000000D+00  .513557106001D-08  .133987544822D+01
     .000000000000D+00  .786343321670D-02  .113993883133D-04  .515505167389D+04
     .597584000000D+06 -.102445483208D-06 -.399623252907D+00 -.465661287308D-07
     .923154754267D+00  .143000000000D+03 -.199128322873D+01 -.836427697714D-08
     .796461747257D-10  .100000000000D+01  .189200000000D+04  .000000000000D+00
     .240000000000D+01  .000000000000D+00 -.176951289177D-07  .100000000000D+01
     .591486000000D+06  .400000000000D+01
28 16  4 16 21 59 44.0  .516650266945D-03  .261479726760D-11  .000000000000D+00
     .380000000000D+02  .255000000000D+02  .377051419991D-08  .240565814525D+01
     .128895044327D-05  .197636539815D-01  .976212322712D-05  .515362806892D+04
     .597584000000D+06  .204890966415D-06  .284806431304D+01 -.188127160072D-06
     .989760178250D+00  .200625000000D+03 -.161803947702D+01 -.732923386344D-08
     .257153568621D-10  .100000000000D+01  .189200000000D+04  .000000000000D+00
     .240000000000D+01  .000000000000D+00 -.111758708954D-07  .380000000000D+02
     .591516000000D+06  .400000000000D+01
22 16  4 16 23 59 44.0  .361214391887D-03 -.738964445191D-11  .000000000000D+00
     .200000000000D+01  .556250000000D+01  .512164190837D-08  .238925060906D+01
     .126659870148D-06  .786317337770D-02  .110343098640D-04  .515505138588D+04
     .604784000000D+06  .819563865662D-07 -.399682938502D+00 -.763684511185D-07
     .923156214259D+00  .142875000000D+03 -.199131438304D+01 -.817462622028D-08
     .900037490174D-10  .100000000000D+01  .189200000000D+04  .000000000000D+00
     .240000000000D+01  .000000000000D+00 -.176951289177D-07  .200000000000D+01
     .597606000000D+06  .400000000000D+01
28 16  4 16 23 59 44.0  .516669359058D-03  .261479726760D-11  .000000000000D+00
     .400000000000D+02  .403437500000D+02  .371051170056D-08 -.282737319471D+01
     .204145908356D-05  .197610059986D-01  .105015933514D-04  .515363316345D+04
     .604784000000D+06  .353902578354D-06  .284801001244D+01  .119209289551D-06
     .989760975540D+00  .185375000000D+03 -.161799152549D+01 -.737995026169D-08
     .279297348141D-09  .100000000000D+01  .189200000000D+04  .000000000000D+00
     .240000000000D+01  .000000000000D+00 -.111758708954D-07  .400000000000D+02
     .597606000000D+06  .400000000000D+01
 1 16  4 17  0  0  0.0  .175535678864D-04  .113686837722D-11  .000000000000D+00
     .980000000000D+02 -.742187500000D+02  .461412076808D-08  .584601433511D+00
    -.371597707272D-05  .530493620317D-02  .710599124432D-05  .515365029907D+04
     .000000000000D+00  .409781932831D-07 -.153073080273D+01  .800937414169D-07
     .963784155719D+00  .239187500000D+03  .449789807917D+00 -.824998650220D-08
    -.440732643998D-09  .100000000000D+01  .189300000000D+04  .000000000000D+00
     .340000000000D+01  .000000000000D+00  .512227416039D-08  .980000000000D+02
     .597606000000D+06  .400000000000D+01
 2 16  4 17  0  0  0.0  .596705358475D-03 -.181898940355D-11  .000000000000D+00
     .230000000000D+02 -.681875000000D+02  .516414367874D-08  .971331395440D+00
    -.347569584846D-05  .156326073920D-01  .679865479469D-05  .515375707054D+04
     .000000000000D+00 -.221654772758D-06 -.157538757815D+01  .223517417908D-07
     .942535358392D+00  .246468750000D+03 -.213016656642D+01 -.862500212310D-08
    -.501806616545D-09  .100000000000D+01  .189300000000D+04  .000000000000D+00
     .240000000000D+01  .000000000000D+00 -.200234353542D-07  .230000000000D+02
     .597606000000D+06  .400000000000D+01
 3 16  4 17  0  0  0.0 -.482467003167D-04 -.409272615798D-11  .000000000000D+00
     .710000000000D+02  .881250000000D+01  .435018120251D-08  .232772856939D+01
     .314787030220D-06  .228449702263D-03  .115036964417D-04  .515372892189D+04
     .000000000000D+00  .484287738800D-07 -.489272006566D+00  .391155481339D-07
     .959574004760D+00  .156531250000D+03 -.240560332678D+01 -.791461538979D-08
     .732173355102D-10  .100000000000D+01  .189300000000D+04  .000000000000D+00
     .240000000000D+01  .000000000000D+00  .186264514923D-08  .710000000000D+02
     .597606000000D+06  .400000000000D+01
 5 16  4 17  0  0  0.0 -.128357671201D-03  .318323145621D-11  .000000000000D+00
     .120000000000D+02  .159375000000D+01  .460126308965D-08 -.280697133918D+01
     .108033418655D-06  .458748254459D-02  .108610838652D-04  .515377409363D+04
     .000000000000D+00  .223517417908D-07 -.500625785462D+00 -.260770320892D-07
     .946652198584D+00  .163718750000D+03  .461069974238D+00 -.795390274055D-08
     .117862052285D-09  .100000000000D+01  .189300000000D+04  .000000000000D+00
     .240000000000D+01  .000000000000D+00 -.107102096081D-07  .120000000000D+02
     .597606000000D+06  .400000000000D+01
